[{"OBJECT_NAME":"ONEWEB-0287","OBJECT_ID":"2021-075C","EPOCH":"2026-03-09T22:02:02.385888","MEAN_MOTION":13.17647802,"ECCENTRICITY":0.00018032,"INCLINATION":87.915,"RA_OF_ASC_NODE":25.5785,"ARG_OF_PERICENTER":66.5637,"MEAN_ANOMALY":293.5684,"EPHEMERIS_TYPE":0,"CLASSIFICATION_TYPE":"U","NORAD_CAT_ID":49077,"ELEMENT_SET_NO":999,"REV_AT_EPOCH":22055,"BSTAR":-1.298876e-5,"MEAN_MOTION_DOT":8.0e-8,"MEAN_MOTION_DDOT":0},{"OBJECT_NAME":"SL-8 R\/B","OBJECT_ID":"1972-019B","EPOCH":"2026-03-09T18:55:59.967264","MEAN_MOTION":13.22465033,"ECCENTRICITY":0.00219027,"INCLINATION":82.9705,"RA_OF_ASC_NODE":306.675,"ARG_OF_PERICENTER":105.9174,"MEAN_ANOMALY":323.551,"EPHEMERIS_TYPE":0,"CLASSIFICATION_TYPE":"U","NORAD_CAT_ID":5907,"ELEMENT_SET_NO":999,"REV_AT_EPOCH":60317,"BSTAR":0.00021534016,"MEAN_MOTION_DOT":1.03e-6,"MEAN_MOTION_DDOT":0}]
